[{"OBJECT_NAME":"ONEWEB-0291","OBJECT_ID":"2021-075G","EPOCH":"2026-04-11T04:30:06.108480","MEAN_MOTION":13.17651368,"ECCENTRICITY":0.0001532,"INCLINATION":87.9193,"RA_OF_ASC_NODE":19.1655,"ARG_OF_PERICENTER":70.2988,"MEAN_ANOMALY":289.8309,"EPHEMERIS_TYPE":0,"CLASSIFICATION_TYPE":"U","NORAD_CAT_ID":49081,"ELEMENT_SET_NO":999,"REV_AT_EPOCH":22478,"BSTAR":0.00018566,"MEAN_MOTION_DOT":8.5e-07,"MEAN_MOTION_DDOT":0.0},{"OBJECT_NAME":"ONEWEB-0293","OBJECT_ID":"2021-075H","EPOCH":"2026-04-11T05:06:32.803488","MEAN_MOTION":13.17646846,"ECCENTRICITY":0.0001826,"INCLINATION":87.9185,"RA_OF_ASC_NODE":19.1686,"ARG_OF_PERICENTER":73.9375,"MEAN_ANOMALY":286.1958,"EPHEMERIS_TYPE":0,"CLASSIFICATION_TYPE":"U","NORAD_CAT_ID":49082,"ELEMENT_SET_NO":999,"REV_AT_EPOCH":22481,"BSTAR":0.00012755,"MEAN_MOTION_DOT":6.2e-07,"MEAN_MOTION_DDOT":0.0},{"OBJECT_NAME":"ONEWEB-0294","OBJECT_ID":"2021-075J","EPOCH":"2026-04-11T03:58:23.445696","MEAN_MOTION":13.12442725,"ECCENTRICITY":0.0001893,"INCLINATION":87.9011,"RA_OF_ASC_NODE":3.9698,"ARG_OF_PERICENTER":68.3963,"MEAN_ANOMALY":291.7367,"EPHEMERIS_TYPE":0,"CLASSIFICATION_TYPE":"U","NORAD_CAT_ID":49083,"ELEMENT_SET_NO":999,"REV_AT_EPOCH":22578,"BSTAR":0.0007935100000000001,"MEAN_MOTION_DOT":2.98e-06,"MEAN_MOTION_DDOT":0.0},{"OBJECT_NAME":"ONEWEB-0295","OBJECT_ID":"2021-075K","EPOCH":"2026-04-11T05:05:20.388192","MEAN_MOTION":13.17647932,"ECCENTRICITY":0.0001497,"INCLINATION":87.9184,"RA_OF_ASC_NODE":19.1733,"ARG_OF_PERICENTER":73.9052,"MEAN_ANOMALY":286.2244,"EPHEMERIS_TYPE":0,"CLASSIFICATION_TYPE":"U","NORAD_CAT_ID":49084,"ELEMENT_SET_NO":999,"REV_AT_EPOCH":22477,"BSTAR":7.6721e-05,"MEAN_MOTION_DOT":4.3e-07,"MEAN_MOTION_DDOT":0.0},{"OBJECT_NAME":"ONEWEB-0296","OBJECT_ID":"2021-075L","EPOCH":"2026-04-11T03:29:04.867872","MEAN_MOTION":13.12441848,"ECCENTRICITY":0.0001493,"INCLINATION":87.9016,"RA_OF_ASC_NODE":3.9786,"ARG_OF_PERICENTER":71.9073,"MEAN_ANOMALY":288.2218,"EPHEMERIS_TYPE":0,"CLASSIFICATION_TYPE":"U","NORAD_CAT_ID":49085,"ELEMENT_SET_NO":999,"REV_AT_EPOCH":22578,"BSTAR":-0.00096686,"MEAN_MOTION_DOT":-3.35e-06,"MEAN_MOTION_DDOT":0.0},{"OBJECT_NAME":"ONEWEB-0297","OBJECT_ID":"2021-075M","EPOCH":"2026-04-11T04:13:01.302528","MEAN_MOTION":13.12442694,"ECCENTRICITY":0.0001654,"INCLINATION":87.9003,"RA_OF_ASC_NODE":3.993,"ARG_OF_PERICENTER":78.6443,"MEAN_ANOMALY":281.4872,"EPHEMERIS_TYPE":0,"CLASSIFICATION_TYPE":"U","NORAD_CAT_ID":49086,"ELEMENT_SET_NO":999,"REV_AT_EPOCH":22639,"BSTAR":0.0013792,"MEAN_MOTION_DOT":5.09e-06,"MEAN_MOTION_DDOT":0.0},{"OBJECT_NAME":"ONEWEB-0298","OBJECT_ID":"2021-075N","EPOCH":"2026-04-11T01:32:56.549760","MEAN_MOTION":13.17649827,"ECCENTRICITY":0.0001759,"INCLINATION":87.9185,"RA_OF_ASC_NODE":19.1997,"ARG_OF_PERICENTER":83.0935,"MEAN_ANOMALY":277.0397,"EPHEMERIS_TYPE":0,"CLASSIFICATION_TYPE":"U","NORAD_CAT_ID":49087,"ELEMENT_SET_NO":999,"REV_AT_EPOCH":22478,"BSTAR":7.9845e-05,"MEAN_MOTION_DOT":4.4e-07,"MEAN_MOTION_DDOT":0.0},{"OBJECT_NAME":"ONEWEB-0299","OBJECT_ID":"2021-075P","EPOCH":"2026-04-11T05:13:50.421216","MEAN_MOTION":13.17650985,"ECCENTRICITY":0.000162,"INCLINATION":87.9195,"RA_OF_ASC_NODE":19.1434,"ARG_OF_PERICENTER":78.7018,"MEAN_ANOMALY":281.4296,"EPHEMERIS_TYPE":0,"CLASSIFICATION_TYPE":"U","NORAD_CAT_ID":49088,"ELEMENT_SET_NO":999,"REV_AT_EPOCH":22478,"BSTAR":0.00023857000000000001,"MEAN_MOTION_DOT":1.05e-06,"MEAN_MOTION_DDOT":0.0},{"OBJECT_NAME":"ONEWEB-0300","OBJECT_ID":"2021-075Q","EPOCH":"2026-04-11T04:02:03.250752","MEAN_MOTION":13.12444061,"ECCENTRICITY":0.000178,"INCLINATION":87.9015,"RA_OF_ASC_NODE":3.9661,"ARG_OF_PERICENTER":91.0865,"MEAN_ANOMALY":269.0467,"EPHEMERIS_TYPE":0,"CLASSIFICATION_TYPE":"U","NORAD_CAT_ID":49089,"ELEMENT_SET_NO":999,"REV_AT_EPOCH":22641,"BSTAR":0.0010969,"MEAN_MOTION_DOT":4.07e-06,"MEAN_MOTION_DDOT":0.0},{"OBJECT_NAME":"ONEWEB-0301","OBJECT_ID":"2021-075R","EPOCH":"2026-04-11T03:38:51.873792","MEAN_MOTION":13.12443026,"ECCENTRICITY":0.0001947,"INCLINATION":87.9014,"RA_OF_ASC_NODE":3.9691,"ARG_OF_PERICENTER":89.4646,"MEAN_ANOMALY":270.6706,"EPHEMERIS_TYPE":0,"CLASSIFICATION_TYPE":"U","NORAD_CAT_ID":49090,"ELEMENT_SET_NO":999,"REV_AT_EPOCH":22577,"BSTAR":-0.0005474599999999999,"MEAN_MOTION_DOT":-1.84e-06,"MEAN_MOTION_DDOT":0.0},{"OBJECT_NAME":"ONEWEB-0302","OBJECT_ID":"2021-075S","EPOCH":"2026-04-10T23:39:45.647136","MEAN_MOTION":13.12440694,"ECCENTRICITY":0.0001769,"INCLINATION":87.9014,"RA_OF_ASC_NODE":4.0118,"ARG_OF_PERICENTER":68.0528,"MEAN_ANOMALY":292.0789,"EPHEMERIS_TYPE":0,"CLASSIFICATION_TYPE":"U","NORAD_CAT_ID":49091,"ELEMENT_SET_NO":999,"REV_AT_EPOCH":22573,"BSTAR":-0.0014443000000000001,"MEAN_MOTION_DOT":-5.07e-06,"MEAN_MOTION_DDOT":0.0},{"OBJECT_NAME":"ONEWEB-0304","OBJECT_ID":"2021-075T","EPOCH":"2026-04-11T04:37:23.028960","MEAN_MOTION":13.17648871,"ECCENTRICITY":0.0001664,"INCLINATION":87.9188,"RA_OF_ASC_NODE":19.1766,"ARG_OF_PERICENTER":77.7618,"MEAN_ANOMALY":282.37,"EPHEMERIS_TYPE":0,"CLASSIFICATION_TYPE":"U","NORAD_CAT_ID":49092,"ELEMENT_SET_NO":999,"REV_AT_EPOCH":22475,"BSTAR":-3.3718e-05,"MEAN_MOTION_DOT":0.0,"MEAN_MOTION_DDOT":0.0},{"OBJECT_NAME":"ONEWEB-0305","OBJECT_ID":"2021-075U","EPOCH":"2026-04-11T04:27:40.011264","MEAN_MOTION":13.17649143,"ECCENTRICITY":0.00014,"INCLINATION":87.9194,"RA_OF_ASC_NODE":19.1578,"ARG_OF_PERICENTER":79.7428,"MEAN_ANOMALY":280.3862,"EPHEMERIS_TYPE":0,"CLASSIFICATION_TYPE":"U","NORAD_CAT_ID":49093,"ELEMENT_SET_NO":999,"REV_AT_EPOCH":22478,"BSTAR":9.1271e-05,"MEAN_MOTION_DOT":4.8e-07,"MEAN_MOTION_DDOT":0.0},{"OBJECT_NAME":"ONEWEB-0308","OBJECT_ID":"2021-075V","EPOCH":"2026-04-10T23:30:00.357120","MEAN_MOTION":13.12440796,"ECCENTRICITY":0.0001804,"INCLINATION":87.9012,"RA_OF_ASC_NODE":4.0059,"ARG_OF_PERICENTER":78.6837,"MEAN_ANOMALY":281.4494,"EPHEMERIS_TYPE":0,"CLASSIFICATION_TYPE":"U","NORAD_CAT_ID":49094,"ELEMENT_SET_NO":999,"REV_AT_EPOCH":22574,"BSTAR":-0.0010757,"MEAN_MOTION_DOT":-3.74e-06,"MEAN_MOTION_DDOT":0.0},{"OBJECT_NAME":"ONEWEB-0309","OBJECT_ID":"2021-075W","EPOCH":"2026-04-11T04:32:32.826048","MEAN_MOTION":13.17650502,"ECCENTRICITY":0.0001833,"INCLINATION":87.9186,"RA_OF_ASC_NODE":19.1709,"ARG_OF_PERICENTER":65.3152,"MEAN_ANOMALY":294.817,"EPHEMERIS_TYPE":0,"CLASSIFICATION_TYPE":"U","NORAD_CAT_ID":49095,"ELEMENT_SET_NO":999,"REV_AT_EPOCH":22475,"BSTAR":0.00010112000000000001,"MEAN_MOTION_DOT":5.2e-07,"MEAN_MOTION_DDOT":0.0},{"OBJECT_NAME":"ONEWEB-0310","OBJECT_ID":"2021-075X","EPOCH":"2026-04-11T03:31:32.804544","MEAN_MOTION":13.12443247,"ECCENTRICITY":0.0001839,"INCLINATION":87.9007,"RA_OF_ASC_NODE":4.0003,"ARG_OF_PERICENTER":78.2555,"MEAN_ANOMALY":281.878,"EPHEMERIS_TYPE":0,"CLASSIFICATION_TYPE":"U","NORAD_CAT_ID":49096,"ELEMENT_SET_NO":999,"REV_AT_EPOCH":22639,"BSTAR":-0.00083657,"MEAN_MOTION_DOT":-2.88e-06,"MEAN_MOTION_DDOT":0.0}]