ONEWEB-0291             
1 49081U 21075G   26101.18757070  .00000085  00000+0  18566-3 0  9993
2 49081  87.9193  19.1655 0001532  70.2988 289.8309 13.17651368224786
ONEWEB-0293             
1 49082U 21075H   26101.21287967  .00000062  00000+0  12755-3 0  9990
2 49082  87.9185  19.1686 0001826  73.9375 286.1958 13.17646846224817
ONEWEB-0294             
1 49083U 21075J   26101.16554914  .00000298  00000+0  79351-3 0  9990
2 49083  87.9011   3.9698 0001893  68.3963 291.7367 13.12442725225783
ONEWEB-0295             
1 49084U 21075K   26101.21204153  .00000043  00000+0  76721-4 0  9991
2 49084  87.9184  19.1733 0001497  73.9052 286.2244 13.17647932224778
ONEWEB-0296             
1 49085U 21075L   26101.14519523 -.00000335  00000+0 -96686-3 0  9991
2 49085  87.9016   3.9786 0001493  71.9073 288.2218 13.12441848225787
ONEWEB-0297             
1 49086U 21075M   26101.17570952  .00000509  00000+0  13792-2 0  9995
2 49086  87.9003   3.9930 0001654  78.6443 281.4872 13.12442694226398
ONEWEB-0298             
1 49087U 21075N   26101.06454340  .00000044  00000+0  79845-4 0  9993
2 49087  87.9185  19.1997 0001759  83.0935 277.0397 13.17649827224780
ONEWEB-0299             
1 49088U 21075P   26101.21794469  .00000105  00000+0  23857-3 0  9999
2 49088  87.9195  19.1434 0001620  78.7018 281.4296 13.17650985224782
ONEWEB-0300             
1 49089U 21075Q   26101.16809318  .00000407  00000+0  10969-2 0  9998
2 49089  87.9015   3.9661 0001780  91.0865 269.0467 13.12444061226417
ONEWEB-0301             
1 49090U 21075R   26101.15198928 -.00000184  00000+0 -54746-3 0  9993
2 49090  87.9014   3.9691 0001947  89.4646 270.6706 13.12443026225776
ONEWEB-0302             
1 49091U 21075S   26100.98594499 -.00000507  00000+0 -14443-2 0  9995
2 49091  87.9014   4.0118 0001769  68.0528 292.0789 13.12440694225730
ONEWEB-0304             
1 49092U 21075T   26101.19262765  .00000000  00000+0 -33718-4 0  9993
2 49092  87.9188  19.1766 0001664  77.7618 282.3700 13.17648871224758
ONEWEB-0305             
1 49093U 21075U   26101.18587976  .00000048  00000+0  91271-4 0  9996
2 49093  87.9194  19.1578 0001400  79.7428 280.3862 13.17649143224789
ONEWEB-0308             
1 49094U 21075V   26100.97917080 -.00000374  00000+0 -10757-2 0  9998
2 49094  87.9012   4.0059 0001804  78.6837 281.4494 13.12440796225744
ONEWEB-0309             
1 49095U 21075W   26101.18926882  .00000052  00000+0  10112-3 0  9990
2 49095  87.9186  19.1709 0001833  65.3152 294.8170 13.17650502224753
ONEWEB-0310             
1 49096U 21075X   26101.14690746 -.00000288  00000+0 -83657-3 0  9991
2 49096  87.9007   4.0003 0001839  78.2555 281.8780 13.12443247226398
